QIANFAN-65              
1 62795U 25016L   25317.17888117  .00000180  00000+0  25945-3 0  9998
2 62795  88.9737 106.1145 0015407  71.8358 288.4469 13.50976071 43254
QIANFAN-66              
1 62796U 25016M   25317.20769749  .00000172  00000+0  24711-3 0  9993
2 62796  88.9756 106.0759 0016454  67.5106 292.7785 13.50980095 43308
QIANFAN-67              
1 62797U 25016N   25317.21185022  .00000180  00000+0  25959-3 0  9995
2 62797  88.9747 106.1039 0016521  73.7908 286.5059 13.50972974 43273
QIANFAN-68              
1 62798U 25016P   25317.20359683  .00000178  00000+0  25618-3 0  9990
2 62798  88.9750 106.1489 0016556  72.1748 288.1207 13.50975291 43256
QIANFAN-69              
1 62799U 25016Q   25317.22014731  .00000187  00000+0  27031-3 0  9996
2 62799  88.9729 106.0229 0017326  72.9976 287.3073 13.50972547 43298
QIANFAN-70              
1 62800U 25016R   25317.23640165  .00000190  00000+0  27575-3 0  9993
2 62800  88.9750 106.1535 0016776  64.1946 296.0934 13.50975790 43256
QIANFAN-71              
1 62801U 25016S   25317.23237361  .00000182  00000+0  26295-3 0  9993
2 62801  88.9744 106.1352 0017280  76.2134 284.0939 13.50976296 43255
QIANFAN-72              
1 62802U 25016T   25317.32291371  .00000177  00000+0  25529-3 0  9998
2 62802  88.9734 106.1421 0020607  82.2552 278.0938 13.50976199 43254
